[{"OBJECT_NAME":"KUIPER-00218","OBJECT_ID":"2026-030S","EPOCH":"2026-03-05T06:41:14.616096","MEAN_MOTION":15.34979353,"ECCENTRICITY":0.00065689,"INCLINATION":51.8835,"RA_OF_ASC_NODE":240.5068,"ARG_OF_PERICENTER":39.2931,"MEAN_ANOMALY":320.8531,"EPHEMERIS_TYPE":0,"CLASSIFICATION_TYPE":"U","NORAD_CAT_ID":67780,"ELEMENT_SET_NO":999,"REV_AT_EPOCH":441,"BSTAR":0.00084815572,"MEAN_MOTION_DOT":0.00028965,"MEAN_MOTION_DDOT":0},{"OBJECT_NAME":"KUIPER-00220","OBJECT_ID":"2026-030T","EPOCH":"2026-03-05T06:49:58.757376","MEAN_MOTION":15.34584083,"ECCENTRICITY":0.0008155,"INCLINATION":51.8811,"RA_OF_ASC_NODE":240.5396,"ARG_OF_PERICENTER":43.595,"MEAN_ANOMALY":316.5679,"EPHEMERIS_TYPE":0,"CLASSIFICATION_TYPE":"U","NORAD_CAT_ID":67781,"ELEMENT_SET_NO":999,"REV_AT_EPOCH":441,"BSTAR":0.0014911827,"MEAN_MOTION_DOT":0.00050736,"MEAN_MOTION_DDOT":0},{"OBJECT_NAME":"KUIPER-00222","OBJECT_ID":"2026-030U","EPOCH":"2026-03-04T23:32:19.148352","MEAN_MOTION":15.3242289,"ECCENTRICITY":0.00177,"INCLINATION":51.8797,"RA_OF_ASC_NODE":242.2438,"ARG_OF_PERICENTER":46.4411,"MEAN_ANOMALY":313.804,"EPHEMERIS_TYPE":0,"CLASSIFICATION_TYPE":"U","NORAD_CAT_ID":67782,"ELEMENT_SET_NO":999,"REV_AT_EPOCH":436,"BSTAR":0.0024762531,"MEAN_MOTION_DOT":0.00079505,"MEAN_MOTION_DDOT":0},{"OBJECT_NAME":"KUIPER-00223","OBJECT_ID":"2026-030V","EPOCH":"2026-03-05T06:59:40.589664","MEAN_MOTION":15.34070503,"ECCENTRICITY":0.00124535,"INCLINATION":51.8831,"RA_OF_ASC_NODE":240.5875,"ARG_OF_PERICENTER":47.2172,"MEAN_ANOMALY":312.9859,"EPHEMERIS_TYPE":0,"CLASSIFICATION_TYPE":"U","NORAD_CAT_ID":67783,"ELEMENT_SET_NO":999,"REV_AT_EPOCH":441,"BSTAR":0.0013198335,"MEAN_MOTION_DOT":0.00044153,"MEAN_MOTION_DDOT":0},{"OBJECT_NAME":"KUIPER-00225","OBJECT_ID":"2026-030W","EPOCH":"2026-03-05T00:13:36.442848","MEAN_MOTION":15.35688077,"ECCENTRICITY":0.00041277,"INCLINATION":51.881,"RA_OF_ASC_NODE":241.6996,"ARG_OF_PERICENTER":26.5884,"MEAN_ANOMALY":333.5314,"EPHEMERIS_TYPE":0,"CLASSIFICATION_TYPE":"U","NORAD_CAT_ID":67784,"ELEMENT_SET_NO":999,"REV_AT_EPOCH":437,"BSTAR":0.00080935199,"MEAN_MOTION_DOT":0.00028249,"MEAN_MOTION_DDOT":0},{"OBJECT_NAME":"KUIPER-00226","OBJECT_ID":"2026-030X","EPOCH":"2026-03-05T04:29:58.493184","MEAN_MOTION":15.31246905,"ECCENTRICITY":0.00199777,"INCLINATION":51.8802,"RA_OF_ASC_NODE":241.3778,"ARG_OF_PERICENTER":59.6438,"MEAN_ANOMALY":300.6519,"EPHEMERIS_TYPE":0,"CLASSIFICATION_TYPE":"U","NORAD_CAT_ID":67785,"ELEMENT_SET_NO":999,"REV_AT_EPOCH":439,"BSTAR":0.0014884138,"MEAN_MOTION_DOT":0.00045762,"MEAN_MOTION_DDOT":0},{"OBJECT_NAME":"KUIPER-00259","OBJECT_ID":"2026-030Y","EPOCH":"2026-03-05T06:44:09.799872","MEAN_MOTION":15.34877378,"ECCENTRICITY":0.00082354,"INCLINATION":51.8812,"RA_OF_ASC_NODE":240.5134,"ARG_OF_PERICENTER":37.1971,"MEAN_ANOMALY":322.9584,"EPHEMERIS_TYPE":0,"CLASSIFICATION_TYPE":"U","NORAD_CAT_ID":67786,"ELEMENT_SET_NO":999,"REV_AT_EPOCH":441,"BSTAR":0.00076844782,"MEAN_MOTION_DOT":0.00026121,"MEAN_MOTION_DDOT":0},{"OBJECT_NAME":"KUIPER-00260","OBJECT_ID":"2026-030Z","EPOCH":"2026-03-05T04:43:48.153504","MEAN_MOTION":15.36267695,"ECCENTRICITY":7.157e-5,"INCLINATION":51.8795,"RA_OF_ASC_NODE":240.7071,"ARG_OF_PERICENTER":50.8386,"MEAN_ANOMALY":309.2664,"EPHEMERIS_TYPE":0,"CLASSIFICATION_TYPE":"U","NORAD_CAT_ID":67787,"ELEMENT_SET_NO":999,"REV_AT_EPOCH":431,"BSTAR":0.0010642819,"MEAN_MOTION_DOT":0.00038015,"MEAN_MOTION_DDOT":0},{"OBJECT_NAME":"KUIPER-00262","OBJECT_ID":"2026-030AA","EPOCH":"2026-03-04T23:57:49.921344","MEAN_MOTION":15.36571962,"ECCENTRICITY":3.549e-5,"INCLINATION":51.8807,"RA_OF_ASC_NODE":241.6308,"ARG_OF_PERICENTER":117.8319,"MEAN_ANOMALY":242.2704,"EPHEMERIS_TYPE":0,"CLASSIFICATION_TYPE":"U","NORAD_CAT_ID":67788,"ELEMENT_SET_NO":999,"REV_AT_EPOCH":437,"BSTAR":0.0010340759,"MEAN_MOTION_DOT":0.00037288,"MEAN_MOTION_DDOT":0},{"OBJECT_NAME":"KUIPER-00266","OBJECT_ID":"2026-030AB","EPOCH":"2026-03-05T04:36:31.740192","MEAN_MOTION":15.30964273,"ECCENTRICITY":0.00227213,"INCLINATION":51.8803,"RA_OF_ASC_NODE":241.4025,"ARG_OF_PERICENTER":60.2103,"MEAN_ANOMALY":300.1137,"EPHEMERIS_TYPE":0,"CLASSIFICATION_TYPE":"U","NORAD_CAT_ID":67789,"ELEMENT_SET_NO":999,"REV_AT_EPOCH":439,"BSTAR":0.00091958428,"MEAN_MOTION_DOT":0.00027864,"MEAN_MOTION_DDOT":0},{"OBJECT_NAME":"KUIPER-00268","OBJECT_ID":"2026-030AC","EPOCH":"2026-03-05T00:10:01.223904","MEAN_MOTION":15.35796041,"ECCENTRICITY":0.00024529,"INCLINATION":51.8846,"RA_OF_ASC_NODE":241.6907,"ARG_OF_PERICENTER":35.7027,"MEAN_ANOMALY":324.4123,"EPHEMERIS_TYPE":0,"CLASSIFICATION_TYPE":"U","NORAD_CAT_ID":67790,"ELEMENT_SET_NO":999,"REV_AT_EPOCH":437,"BSTAR":0.0010540983,"MEAN_MOTION_DOT":0.00037075,"MEAN_MOTION_DDOT":0},{"OBJECT_NAME":"KUIPER-00270","OBJECT_ID":"2026-030AD","EPOCH":"2026-03-05T06:51:53.955360","MEAN_MOTION":15.3446452,"ECCENTRICITY":0.00101846,"INCLINATION":51.881,"RA_OF_ASC_NODE":240.5474,"ARG_OF_PERICENTER":44.7076,"MEAN_ANOMALY":315.4729,"EPHEMERIS_TYPE":0,"CLASSIFICATION_TYPE":"U","NORAD_CAT_ID":67791,"ELEMENT_SET_NO":999,"REV_AT_EPOCH":441,"BSTAR":0.0010733534,"MEAN_MOTION_DOT":0.00036224,"MEAN_MOTION_DDOT":0},{"OBJECT_NAME":"KUIPER-00274","OBJECT_ID":"2026-030AE","EPOCH":"2026-03-05T04:21:09.734688","MEAN_MOTION":15.31367467,"ECCENTRICITY":0.00186701,"INCLINATION":51.8814,"RA_OF_ASC_NODE":241.3433,"ARG_OF_PERICENTER":57.2432,"MEAN_ANOMALY":303.0348,"EPHEMERIS_TYPE":0,"CLASSIFICATION_TYPE":"U","NORAD_CAT_ID":67792,"ELEMENT_SET_NO":999,"REV_AT_EPOCH":439,"BSTAR":-0.0011183642,"MEAN_MOTION_DOT":-0.0003479,"MEAN_MOTION_DDOT":0},{"OBJECT_NAME":"KUIPER-00275","OBJECT_ID":"2026-030AF","EPOCH":"2026-03-05T06:48:08.575776","MEAN_MOTION":15.3452847,"ECCENTRICITY":0.00089068,"INCLINATION":51.8842,"RA_OF_ASC_NODE":240.5394,"ARG_OF_PERICENTER":41.2919,"MEAN_ANOMALY":318.8739,"EPHEMERIS_TYPE":0,"CLASSIFICATION_TYPE":"U","NORAD_CAT_ID":67793,"ELEMENT_SET_NO":999,"REV_AT_EPOCH":441,"BSTAR":0.00076553342,"MEAN_MOTION_DOT":0.00025733,"MEAN_MOTION_DDOT":0},{"OBJECT_NAME":"KUIPER-00276","OBJECT_ID":"2026-030AG","EPOCH":"2026-03-05T04:26:54.370464","MEAN_MOTION":15.31368166,"ECCENTRICITY":0.00188443,"INCLINATION":51.8807,"RA_OF_ASC_NODE":241.3676,"ARG_OF_PERICENTER":54.6829,"MEAN_ANOMALY":305.5914,"EPHEMERIS_TYPE":0,"CLASSIFICATION_TYPE":"U","NORAD_CAT_ID":67794,"ELEMENT_SET_NO":999,"REV_AT_EPOCH":439,"BSTAR":0.0010383518,"MEAN_MOTION_DOT":0.00031853,"MEAN_MOTION_DDOT":0},{"OBJECT_NAME":"KUIPER-00279","OBJECT_ID":"2026-030AH","EPOCH":"2026-03-05T06:38:27.896064","MEAN_MOTION":15.35214301,"ECCENTRICITY":0.00064617,"INCLINATION":51.8803,"RA_OF_ASC_NODE":240.4861,"ARG_OF_PERICENTER":35.1571,"MEAN_ANOMALY":324.984,"EPHEMERIS_TYPE":0,"CLASSIFICATION_TYPE":"U","NORAD_CAT_ID":67795,"ELEMENT_SET_NO":999,"REV_AT_EPOCH":441,"BSTAR":0.00083099634,"MEAN_MOTION_DOT":0.00028585,"MEAN_MOTION_DDOT":0}]
