KUIPER-00218            
1 67780U 26030S   26064.27864139  .00028965  00000+0  84816-3 0  9996
2 67780  51.8835 240.5068 0006568  39.2931 320.8531 15.34979353  4417
KUIPER-00220            
1 67781U 26030T   26064.28470784  .00050736  00000+0  14912-2 0  9997
2 67781  51.8811 240.5396 0008155  43.5950 316.5679 15.34584083  4416
KUIPER-00222            
1 67782U 26030U   26063.98077718  .00079505  00000+0  24763-2 0  9994
2 67782  51.8797 242.2438 0017700  46.4411 313.8040 15.32422890  4367
KUIPER-00223            
1 67783U 26030V   26064.29144201  .00044153  00000+0  13198-2 0  9993
2 67783  51.8831 240.5875 0012453  47.2172 312.9859 15.34070503  4412
KUIPER-00225            
1 67784U 26030W   26064.00944957  .00028249  00000+0  80935-3 0  9991
2 67784  51.8810 241.6996 0004127  26.5884 333.5314 15.35688077  4377
KUIPER-00226            
1 67785U 26030X   26064.18748256  .00045762  00000+0  14884-2 0  9993
2 67785  51.8802 241.3778 0019977  59.6438 300.6519 15.31246905  4395
KUIPER-00259            
1 67786U 26030Y   26064.28066898  .00026121  00000+0  76845-3 0  9994
2 67786  51.8812 240.5134 0008235  37.1971 322.9584 15.34877378  4411
KUIPER-00260            
1 67787U 26030Z   26064.19708511  .00038015  00000+0  10643-2 0  9998
2 67787  51.8795 240.7071 0000715  50.8386 309.2664 15.36267695  4314
KUIPER-00262            
1 67788U 26030AA  26063.99849446  .00037288  00000+0  10341-2 0  9995
2 67788  51.8807 241.6308 0000354 117.8319 242.2704 15.36571962  4373
KUIPER-00266            
1 67789U 26030AB  26064.19203403  .00027864  00000+0  91958-3 0  9999
2 67789  51.8803 241.4025 0022721  60.2103 300.1137 15.30964273  4399
KUIPER-00268            
1 67790U 26030AC  26064.00695861  .00037075  00000+0  10541-2 0  9997
2 67790  51.8846 241.6907 0002452  35.7027 324.4123 15.35796041  4373
KUIPER-00270            
1 67791U 26030AD  26064.28604115  .00036224  00000+0  10734-2 0  9999
2 67791  51.8810 240.5474 0010184  44.7076 315.4729 15.34464520  4417
KUIPER-00274            
1 67792U 26030AE  26064.18136267 -.00034790  00000+0 -11184-2 0  9995
2 67792  51.8814 241.3433 0018670  57.2432 303.0348 15.31367467  4395
KUIPER-00275            
1 67793U 26030AF  26064.28343259  .00025733  00000+0  76553-3 0  9995
2 67793  51.8842 240.5394 0008906  41.2919 318.8739 15.34528470  4415
KUIPER-00276            
1 67794U 26030AG  26064.18535151  .00031853  00000+0  10384-2 0  9998
2 67794  51.8807 241.3676 0018844  54.6829 305.5914 15.31368166  4395
KUIPER-00279            
1 67795U 26030AH  26064.27671176  .00028585  00000+0  83100-3 0  9992
2 67795  51.8803 240.4861 0006461  35.1571 324.9840 15.35214301  4419
